{
    "links": {
        "self": "http://www.neowsapp.com/rest/v1/neo/3757290?api_key=iIulBulltgU6a56xZRHN4H3l9WmuAYTsLGpBGhQ2"
    },
    "id": "3757290",
    "neo_reference_id": "3757290",
    "name": "(2016 PP38)",
    "designation": "2016 PP38",
    "nasa_jpl_url": "http://ssd.jpl.nasa.gov/sbdb.cgi?sstr=3757290",
    "absolute_magnitude_h": 26.7,
    "estimated_diameter": {
        "kilometers": {
            "estimated_diameter_min": 0.0121494041,
            "estimated_diameter_max": 0.0271668934
        },
        "meters": {
            "estimated_diameter_min": 12.14940408,
            "estimated_diameter_max": 27.1668934089
        },
        "miles": {
            "estimated_diameter_min": 0.0075492874,
            "estimated_diameter_max": 0.0168807197
        },
        "feet": {
            "estimated_diameter_min": 39.8602508817,
            "estimated_diameter_max": 89.1302305717
        }
    },
    "is_potentially_hazardous_asteroid": false,
    "close_approach_data": [
        {
            "close_approach_date": "1939-07-21",
            "close_approach_date_full": "1939-Jul-21 17:24",
            "epoch_date_close_approach": -960878160000,
            "relative_velocity": {
                "kilometers_per_second": "5.6435875279",
                "kilometers_per_hour": "20316.9151005228",
                "miles_per_hour": "12624.140941211"
            },
            "miss_distance": {
                "astronomical": "0.0270170547",
                "lunar": "10.5096342783",
                "kilometers": "4041693.836793489",
                "miles": "2511392.0953845882"
            },
            "orbiting_body": "Earth"
        },
        {
            "close_approach_date": "2016-07-22",
            "close_approach_date_full": "2016-Jul-22 22:57",
            "epoch_date_close_approach": 1469228220000,
            "relative_velocity": {
                "kilometers_per_second": "5.7077354727",
                "kilometers_per_hour": "20547.8477018132",
                "miles_per_hour": "12767.6334789405"
            },
            "miss_distance": {
                "astronomical": "0.0263357657",
                "lunar": "10.2446128573",
                "kilometers": "3939774.453539059",
                "miles": "2448062.3272706542"
            },
            "orbiting_body": "Earth"
        }
    ],
    "orbital_data": {
        "orbit_id": "3",
        "orbit_determination_date": "2017-04-06 08:24:35",
        "first_observation_date": "2016-08-08",
        "last_observation_date": "2016-08-12",
        "data_arc_in_days": 4,
        "observations_used": 13,
        "orbit_uncertainty": "9",
        "minimum_orbit_intersection": ".026087",
        "jupiter_tisserand_invariant": "4.174",
        "epoch_osculation": "2457609.5",
        "eccentricity": ".381313711540411",
        "semi_major_axis": "1.661817323980361",
        "inclination": "3.067134563872493",
        "ascending_node_longitude": "140.0493159913428",
        "orbital_period": "782.4801874768102",
        "perihelion_distance": "1.028143592271256",
        "perihelion_argument": "148.0157734339732",
        "aphelion_distance": "2.295491055689467",
        "perihelion_time": "2457581.511849020487",
        "mean_anomaly": "12.87666386175853",
        "mean_motion": ".4600755466548718",
        "equinox": "J2000",
        "orbit_class": {
            "orbit_class_type": "AMO",
            "orbit_class_description": "Near-Earth asteroid orbits similar to that of 1221 Amor",
            "orbit_class_range": "1.017 AU < q (perihelion) < 1.3 AU"
        }
    },
    "is_sentry_object": false
}